IRIDIUM 63              
1 25286U 98021B   25358.11874095  .00000380  00000+0  12240-3 0  9993
2 25286  86.3980   2.4385 0002316  85.0473 275.0989 14.36744304451118
IRIDIUM 69              
1 25319U 98026A   25358.30969325  .00000401  00000+0  11800-3 0  9992
2 25319  86.3971  15.0463 0004530 104.4236 255.7467 14.41226731450441
IRIDIUM 71              
1 25320U 98026B   25358.29567095  .00000276  00000+0  79299-4 0  9997
2 25320  86.3972   9.7238 0003064 134.3831 225.7620 14.41324530450970
IRIDIUM 73              
1 25344U 98032C   25358.28764922  .00000664  00000+0  15935-3 0  9994
2 25344  86.4416 326.0807 0003006  84.1068 276.0481 14.52004651458149
IRIDIUM 82              
1 25467U 98051A   25358.09667577  .00044810  00000+0  81224-3 0  9993
2 25467  86.3599  15.3857 0057575 289.5942  69.9106 15.47557259453152
